[{"OBJECT_NAME":"ONEWEB-0668","OBJECT_ID":"2023-068B","EPOCH":"2026-01-02T05:21:56.224224","MEAN_MOTION":13.16593524,"ECCENTRICITY":0.00012667,"INCLINATION":87.9055,"RA_OF_ASC_NODE":261.8035,"ARG_OF_PERICENTER":95.6812,"MEAN_ANOMALY":264.4463,"EPHEMERIS_TYPE":0,"CLASSIFICATION_TYPE":"U","NORAD_CAT_ID":56711,"ELEMENT_SET_NO":999,"REV_AT_EPOCH":12994,"BSTAR":0.00027094361,"MEAN_MOTION_DOT":1.16e-6,"MEAN_MOTION_DDOT":0},{"OBJECT_NAME":"ONEWEB-0676","OBJECT_ID":"2023-068C","EPOCH":"2026-01-02T01:54:27.385632","MEAN_MOTION":13.16596874,"ECCENTRICITY":0.00017978,"INCLINATION":87.9041,"RA_OF_ASC_NODE":261.8521,"ARG_OF_PERICENTER":76.4506,"MEAN_ANOMALY":283.6825,"EPHEMERIS_TYPE":0,"CLASSIFICATION_TYPE":"U","NORAD_CAT_ID":56712,"ELEMENT_SET_NO":999,"REV_AT_EPOCH":12984,"BSTAR":0.0002510434,"MEAN_MOTION_DOT":1.09e-6,"MEAN_MOTION_DDOT":0},{"OBJECT_NAME":"ONEWEB-0677","OBJECT_ID":"2023-068D","EPOCH":"2026-01-02T06:42:16.306560","MEAN_MOTION":13.20770839,"ECCENTRICITY":0.00018351,"INCLINATION":87.9228,"RA_OF_ASC_NODE":307.5262,"ARG_OF_PERICENTER":82.2353,"MEAN_ANOMALY":277.8988,"EPHEMERIS_TYPE":0,"CLASSIFICATION_TYPE":"U","NORAD_CAT_ID":56713,"ELEMENT_SET_NO":999,"REV_AT_EPOCH":12790,"BSTAR":-0.00047059949,"MEAN_MOTION_DOT":-1.78e-6,"MEAN_MOTION_DDOT":0},{"OBJECT_NAME":"ONEWEB-0678","OBJECT_ID":"2023-068E","EPOCH":"2026-01-02T04:52:10.780320","MEAN_MOTION":13.15548054,"ECCENTRICITY":0.0001766,"INCLINATION":87.9016,"RA_OF_ASC_NODE":292.3096,"ARG_OF_PERICENTER":68.3804,"MEAN_ANOMALY":291.7514,"EPHEMERIS_TYPE":0,"CLASSIFICATION_TYPE":"U","NORAD_CAT_ID":56714,"ELEMENT_SET_NO":999,"REV_AT_EPOCH":12746,"BSTAR":-0.00015329279,"MEAN_MOTION_DOT":-4.5e-7,"MEAN_MOTION_DDOT":0},{"OBJECT_NAME":"ONEWEB-0679","OBJECT_ID":"2023-068F","EPOCH":"2026-01-02T04:34:03.528768","MEAN_MOTION":13.16593546,"ECCENTRICITY":0.00017292,"INCLINATION":87.9039,"RA_OF_ASC_NODE":261.8126,"ARG_OF_PERICENTER":93.8282,"MEAN_ANOMALY":266.3046,"EPHEMERIS_TYPE":0,"CLASSIFICATION_TYPE":"U","NORAD_CAT_ID":56715,"ELEMENT_SET_NO":999,"REV_AT_EPOCH":12988,"BSTAR":0.00014599867,"MEAN_MOTION_DOT":6.9e-7,"MEAN_MOTION_DDOT":0},{"OBJECT_NAME":"ONEWEB-0680","OBJECT_ID":"2023-068G","EPOCH":"2026-01-02T04:05:00.686976","MEAN_MOTION":13.21827985,"ECCENTRICITY":0.00014879,"INCLINATION":87.9232,"RA_OF_ASC_NODE":277.0759,"ARG_OF_PERICENTER":97.939,"MEAN_ANOMALY":262.1913,"EPHEMERIS_TYPE":0,"CLASSIFICATION_TYPE":"U","NORAD_CAT_ID":56716,"ELEMENT_SET_NO":999,"REV_AT_EPOCH":12916,"BSTAR":0.00021692563,"MEAN_MOTION_DOT":1.03e-6,"MEAN_MOTION_DDOT":0},{"OBJECT_NAME":"ONEWEB-0681","OBJECT_ID":"2023-068H","EPOCH":"2026-01-02T07:13:24.471552","MEAN_MOTION":13.21828263,"ECCENTRICITY":0.0002635,"INCLINATION":87.922,"RA_OF_ASC_NODE":277.0636,"ARG_OF_PERICENTER":78.9686,"MEAN_ANOMALY":281.1744,"EPHEMERIS_TYPE":0,"CLASSIFICATION_TYPE":"U","NORAD_CAT_ID":56717,"ELEMENT_SET_NO":999,"REV_AT_EPOCH":12917,"BSTAR":0.00034963959,"MEAN_MOTION_DOT":1.57e-6,"MEAN_MOTION_DDOT":0},{"OBJECT_NAME":"ONEWEB-0682","OBJECT_ID":"2023-068J","EPOCH":"2026-01-02T07:19:21.116064","MEAN_MOTION":13.15549299,"ECCENTRICITY":0.00015856,"INCLINATION":87.9003,"RA_OF_ASC_NODE":292.302,"ARG_OF_PERICENTER":93.2791,"MEAN_ANOMALY":266.8521,"EPHEMERIS_TYPE":0,"CLASSIFICATION_TYPE":"U","NORAD_CAT_ID":56718,"ELEMENT_SET_NO":999,"REV_AT_EPOCH":12764,"BSTAR":0.00012179939,"MEAN_MOTION_DOT":5.9e-7,"MEAN_MOTION_DDOT":0},{"OBJECT_NAME":"ONEWEB-0683","OBJECT_ID":"2023-068K","EPOCH":"2026-01-02T06:00:37.858752","MEAN_MOTION":13.15547548,"ECCENTRICITY":0.00014947,"INCLINATION":87.9016,"RA_OF_ASC_NODE":292.2992,"ARG_OF_PERICENTER":83.0581,"MEAN_ANOMALY":277.072,"EPHEMERIS_TYPE":0,"CLASSIFICATION_TYPE":"U","NORAD_CAT_ID":56719,"ELEMENT_SET_NO":999,"REV_AT_EPOCH":12760,"BSTAR":0.00042802625,"MEAN_MOTION_DOT":1.74e-6,"MEAN_MOTION_DDOT":0},{"OBJECT_NAME":"ONEWEB-0684","OBJECT_ID":"2023-068L","EPOCH":"2026-01-02T04:22:30.126432","MEAN_MOTION":13.15549327,"ECCENTRICITY":0.00015788,"INCLINATION":87.9013,"RA_OF_ASC_NODE":292.3071,"ARG_OF_PERICENTER":26.6453,"MEAN_ANOMALY":333.4758,"EPHEMERIS_TYPE":0,"CLASSIFICATION_TYPE":"U","NORAD_CAT_ID":56720,"ELEMENT_SET_NO":999,"REV_AT_EPOCH":12742,"BSTAR":0.00027582383,"MEAN_MOTION_DOT":1.17e-6,"MEAN_MOTION_DDOT":0},{"OBJECT_NAME":"ONEWEB-0686","OBJECT_ID":"2023-068M","EPOCH":"2026-01-02T03:48:57.722688","MEAN_MOTION":13.15706939,"ECCENTRICITY":0.00011033,"INCLINATION":87.9033,"RA_OF_ASC_NODE":261.8701,"ARG_OF_PERICENTER":75.4902,"MEAN_ANOMALY":284.635,"EPHEMERIS_TYPE":0,"CLASSIFICATION_TYPE":"U","NORAD_CAT_ID":56721,"ELEMENT_SET_NO":999,"REV_AT_EPOCH":12986,"BSTAR":0.00042706262,"MEAN_MOTION_DOT":1.74e-6,"MEAN_MOTION_DDOT":0},{"OBJECT_NAME":"ONEWEB-0694","OBJECT_ID":"2023-068N","EPOCH":"2026-01-02T03:46:11.329248","MEAN_MOTION":13.16594054,"ECCENTRICITY":0.00012999,"INCLINATION":87.9052,"RA_OF_ASC_NODE":261.8,"ARG_OF_PERICENTER":93.2766,"MEAN_ANOMALY":266.8513,"EPHEMERIS_TYPE":0,"CLASSIFICATION_TYPE":"U","NORAD_CAT_ID":56722,"ELEMENT_SET_NO":999,"REV_AT_EPOCH":12992,"BSTAR":0.00030595364,"MEAN_MOTION_DOT":1.3e-6,"MEAN_MOTION_DDOT":0},{"OBJECT_NAME":"ONEWEB-0696","OBJECT_ID":"2023-068P","EPOCH":"2026-01-02T05:10:25.422528","MEAN_MOTION":13.15547377,"ECCENTRICITY":0.0001762,"INCLINATION":87.9004,"RA_OF_ASC_NODE":292.3513,"ARG_OF_PERICENTER":63.6366,"MEAN_ANOMALY":296.4945,"EPHEMERIS_TYPE":0,"CLASSIFICATION_TYPE":"U","NORAD_CAT_ID":56723,"ELEMENT_SET_NO":999,"REV_AT_EPOCH":12754,"BSTAR":-4.3946285e-5,"MEAN_MOTION_DOT":-4.0e-8,"MEAN_MOTION_DDOT":0},{"OBJECT_NAME":"ONEWEB-0703","OBJECT_ID":"2023-068Q","EPOCH":"2026-01-02T07:13:38.410464","MEAN_MOTION":13.15547254,"ECCENTRICITY":0.00024122,"INCLINATION":87.9002,"RA_OF_ASC_NODE":292.3158,"ARG_OF_PERICENTER":54.7685,"MEAN_ANOMALY":305.3671,"EPHEMERIS_TYPE":0,"CLASSIFICATION_TYPE":"U","NORAD_CAT_ID":56724,"ELEMENT_SET_NO":999,"REV_AT_EPOCH":12744,"BSTAR":7.278121e-5,"MEAN_MOTION_DOT":4.0e-7,"MEAN_MOTION_DDOT":0},{"OBJECT_NAME":"ONEWEB-0721","OBJECT_ID":"2023-068R","EPOCH":"2026-01-01T18:21:01.236096","MEAN_MOTION":13.22455337,"ECCENTRICITY":0.00014374,"INCLINATION":86.6814,"RA_OF_ASC_NODE":138.615,"ARG_OF_PERICENTER":103.0732,"MEAN_ANOMALY":257.0562,"EPHEMERIS_TYPE":0,"CLASSIFICATION_TYPE":"U","NORAD_CAT_ID":56725,"ELEMENT_SET_NO":999,"REV_AT_EPOCH":13594,"BSTAR":4.307782e-6,"MEAN_MOTION_DOT":1.6e-7,"MEAN_MOTION_DDOT":0},{"OBJECT_NAME":"ONEWEB-0015","OBJECT_ID":"2024-188A","EPOCH":"2026-01-02T05:04:24.286080","MEAN_MOTION":13.11417693,"ECCENTRICITY":0.00023539,"INCLINATION":87.8829,"RA_OF_ASC_NODE":54.1456,"ARG_OF_PERICENTER":106.3,"MEAN_ANOMALY":253.8387,"EPHEMERIS_TYPE":0,"CLASSIFICATION_TYPE":"U","NORAD_CAT_ID":61594,"ELEMENT_SET_NO":999,"REV_AT_EPOCH":6270,"BSTAR":0.0013015258,"MEAN_MOTION_DOT":4.74e-6,"MEAN_MOTION_DDOT":0},{"OBJECT_NAME":"ONEWEB-0687","OBJECT_ID":"2024-188B","EPOCH":"2026-01-02T03:48:04.206528","MEAN_MOTION":13.17649107,"ECCENTRICITY":0.00020456,"INCLINATION":87.9077,"RA_OF_ASC_NODE":38.901,"ARG_OF_PERICENTER":114.4118,"MEAN_ANOMALY":245.7227,"EPHEMERIS_TYPE":0,"CLASSIFICATION_TYPE":"U","NORAD_CAT_ID":61595,"ELEMENT_SET_NO":999,"REV_AT_EPOCH":6403,"BSTAR":0.0003400407,"MEAN_MOTION_DOT":1.45e-6,"MEAN_MOTION_DDOT":0}]
