ONEWEB-0668             
1 56711U 23068B   26002.22356741  .00000116  00000+0  27094-3 0  9991
2 56711  87.9055 261.8035 0001266  95.6812 264.4463 13.16593524129940
ONEWEB-0676             
1 56712U 23068C   26002.07948363  .00000109  00000+0  25104-3 0  9994
2 56712  87.9041 261.8521 0001797  76.4506 283.6825 13.16596874129847
ONEWEB-0677             
1 56713U 23068D   26002.27935540 -.00000178  00000+0 -47060-3 0  9993
2 56713  87.9228 307.5262 0001835  82.2353 277.8988 13.20770839127903
ONEWEB-0678             
1 56714U 23068E   26002.20290255 -.00000045  00000+0 -15329-3 0  9990
2 56714  87.9016 292.3096 0001766  68.3804 291.7514 13.15548054127461
ONEWEB-0679             
1 56715U 23068F   26002.19031862  .00000069  00000+0  14600-3 0  9991
2 56715  87.9039 261.8126 0001729  93.8282 266.3046 13.16593546129887
ONEWEB-0680             
1 56716U 23068G   26002.17014684  .00000103  00000+0  21693-3 0  9992
2 56716  87.9232 277.0759 0001487  97.9390 262.1913 13.21827985129161
ONEWEB-0681             
1 56717U 23068H   26002.30097768  .00000157  00000+0  34964-3 0  9996
2 56717  87.9220 277.0636 0002635  78.9686 281.1744 13.21828263129170
ONEWEB-0682             
1 56718U 23068J   26002.30510551  .00000059  00000+0  12180-3 0  9994
2 56718  87.9003 292.3020 0001585  93.2791 266.8521 13.15549299127642
ONEWEB-0683             
1 56719U 23068K   26002.25043818  .00000174  00000+0  42803-3 0  9999
2 56719  87.9016 292.2992 0001494  83.0581 277.0720 13.15547548127603
ONEWEB-0684             
1 56720U 23068L   26002.18229313  .00000117  00000+0  27582-3 0  9993
2 56720  87.9013 292.3071 0001578  26.6453 333.4758 13.15549327127420
ONEWEB-0686             
1 56721U 23068M   26002.15900142  .00000174  00000+0  42706-3 0  9995
2 56721  87.9033 261.8701 0001103  75.4902 284.6350 13.15706939129868
ONEWEB-0694             
1 56722U 23068N   26002.15707557  .00000130  00000+0  30595-3 0  9996
2 56722  87.9052 261.8000 0001299  93.2766 266.8513 13.16594054129928
ONEWEB-0696             
1 56723U 23068P   26002.21557202 -.00000004  00000+0 -43946-4 0  9991
2 56723  87.9004 292.3513 0001762  63.6366 296.4945 13.15547377127545
ONEWEB-0703             
1 56724U 23068Q   26002.30113901  .00000040  00000+0  72781-4 0  9993
2 56724  87.9002 292.3158 0002412  54.7685 305.3671 13.15547254127446
ONEWEB-0721             
1 56725U 23068R   26001.76459764  .00000016  00000+0  43078-5 0  9994
2 56725  86.6814 138.6150 0001437 103.0732 257.0562 13.22455337135949
ONEWEB-0015             
1 61594U 24188A   26002.21139220  .00000474  00000+0  13015-2 0  9994
2 61594  87.8829  54.1456 0002353 106.3000 253.8387 13.11417693 62704
ONEWEB-0687             
1 61595U 24188B   26002.15838202  .00000145  00000+0  34004-3 0  9991
2 61595  87.9077  38.9010 0002045 114.4118 245.7227 13.17649107 64039
